OBJECT_NAME,OBJECT_ID,EPOCH,MEAN_MOTION,ECCENTRICITY,INCLINATION,RA_OF_ASC_NODE,ARG_OF_PERICENTER,MEAN_ANOMALY,EPHEMERIS_TYPE,CLASSIFICATION_TYPE,NORAD_CAT_ID,ELEMENT_SET_NO,REV_AT_EPOCH,BSTAR,MEAN_MOTION_DOT,MEAN_MOTION_DDOT
ONEWEB-0015,2024-188A,2026-07-11T22:52:47.568576,13.11417855,.000158,87.8879,16.1604,73.3914,286.7387,0,U,61594,999,8770,.12841E-2,.468E-5,0
ONEWEB-0687,2024-188B,2026-07-11T21:50:27.170016,13.17648988,.0002059,87.9136,0.9567,77.7910,282.3452,0,U,61595,999,8915,-.22925E-3,-.76E-6,0
ONEWEB-0688,2024-188C,2026-07-11T20:42:23.734944,13.17651288,.00013709,87.9135,0.9662,48.5623,311.5626,0,U,61596,999,8914,.15733898E-3,.74E-6,0
ONEWEB-0689,2024-188D,2026-07-11T21:51:44.127360,13.11414773,.0002119,87.8891,16.1304,85.3037,274.8333,0,U,61597,999,8769,-.97267E-3,-.332E-5,0
ONEWEB-0690,2024-188E,2026-07-11T12:57:03.117888,13.11416619,.00014586,87.8890,16.2152,107.1048,253.0239,0,U,61598,999,8782,-.14578563E-2,-.504E-5,0
ONEWEB-0691,2024-188F,2026-07-11T12:49:43.603680,13.11415450,.00017727,87.8898,16.1272,76.8566,283.2760,0,U,61599,999,8767,-.13264237E-2,-.457E-5,0
ONEWEB-0692,2024-188G,2026-07-11T13:19:01.737408,13.11418816,.00025259,87.8884,16.2314,98.5170,261.6244,0,U,61600,999,8766,-.53410463E-3,-.177E-5,0
ONEWEB-0693,2024-188H,2026-07-11T11:52:41.015424,13.17649911,.00012921,87.9133,1.0580,111.9499,248.1770,0,U,61601,999,8908,.11436393E-4,.17E-6,0
ONEWEB-0695,2024-188J,2026-07-11T12:44:50.772480,13.11415424,.00023027,87.8883,16.2283,89.7068,270.4323,0,U,61602,999,8765,-.11926269E-2,-.41E-5,0
ONEWEB-0697,2024-188K,2026-07-11T20:50:43.056960,13.11418883,.0002498,87.8882,16.1513,99.3782,260.7629,0,U,61603,999,8768,.62728E-3,.235E-5,0
ONEWEB-0698,2024-188L,2026-07-11T23:58:42.006720,13.11416609,.0002323,87.8878,16.1390,119.6504,240.4855,0,U,61604,999,8772,-.14638E-2,-.506E-5,0
ONEWEB-0699,2024-188M,2026-07-11T22:55:18.415200,13.10370234,.0002387,87.8806,31.3289,101.2733,258.8662,0,U,61605,999,8655,-.83035E-3,-.277E-5,0
ONEWEB-0700,2024-188N,2026-07-11T22:57:43.446240,13.10369312,.0002397,87.8837,31.2434,97.9920,262.1479,0,U,61606,999,8654,-.15342E-2,-.523E-5,0
ONEWEB-0701,2024-188P,2026-07-11T23:22:11.097120,13.10375285,.0002476,87.8821,31.3267,101.5189,258.6217,0,U,61607,999,8655,-.13464E-2,-.457E-5,0
ONEWEB-0702,2024-188Q,2026-07-11T12:15:34.141248,13.11414790,.00027887,87.8880,16.1461,97.3520,262.7925,0,U,61608,999,8767,.10821247E-2,.396E-5,0
ONEWEB-0704,2024-188R,2026-07-11T13:55:17.198688,13.10371448,.00028408,87.8823,31.3952,92.8335,267.3117,0,U,61609,999,8648,-.18413777E-2,-.63E-5,0
ONEWEB-0705,2024-188S,2026-07-11T23:12:24.403104,13.10373130,.0002746,87.8824,31.3240,76.2818,283.8615,0,U,61610,999,7870,-.18744E-2,-.642E-5,0
ONEWEB-0706,2024-188T,2026-07-12T00:40:22.453824,13.10369791,.0002464,87.8826,31.3168,88.1334,272.0075,0,U,61611,999,8663,-.85938E-3,-.287E-5,0
ONEWEB-0707,2024-188U,2026-07-11T13:50:23.309088,13.10370009,.00024122,87.8822,31.4007,88.7938,271.3466,0,U,61612,999,8651,-.167157E-2,-.571E-5,0
ONEWEB-0708,2024-188V,2026-07-11T23:27:03.369312,13.10374160,.0002096,87.8821,31.3372,72.1815,287.9541,0,U,61613,999,8654,-.85552E-3,-.286E-5,0
