ONEWEB-0015             
1 61594U 24188A   26192.95332834  .00000468  00000+0  12841-2 0  9990
2 61594  87.8879  16.1604 0001580  73.3914 286.7387 13.11417855 87702
ONEWEB-0687             
1 61595U 24188B   26192.91003669 -.00000076  00000+0 -22925-3 0  9990
2 61595  87.9136   0.9567 0002059  77.7910 282.3452 13.17648988 89150
ONEWEB-0688             
1 61596U 24188C   26192.86277471  .00000074  00000+0  15734-3 0  9995
2 61596  87.9135   0.9662 0001370  48.5623 311.5626 13.17651288 89142
ONEWEB-0689             
1 61597U 24188D   26192.91092740 -.00000332  00000+0 -97267-3 0  9996
2 61597  87.8891  16.1304 0002119  85.3037 274.8333 13.11414773 87697
ONEWEB-0690             
1 61598U 24188E   26192.53961942 -.00000504  00000+0 -14579-2 0  9999
2 61598  87.8890  16.2152 0001458 107.1048 253.0239 13.11416619 87829
ONEWEB-0691             
1 61599U 24188F   26192.53453245 -.00000457  00000+0 -13264-2 0  9999
2 61599  87.8898  16.1272 0001772  76.8566 283.2760 13.11415450 87675
ONEWEB-0692             
1 61600U 24188G   26192.55488122 -.00000177  00000+0 -53410-3 0  9993
2 61600  87.8884  16.2314 0002525  98.5170 261.6244 13.11418816 87665
ONEWEB-0693             
1 61601U 24188H   26192.49491916  .00000017  00000+0  11436-4 0  9996
2 61601  87.9133   1.0580 0001292 111.9499 248.1770 13.17649911 89085
ONEWEB-0695             
1 61602U 24188J   26192.53114320 -.00000410  00000+0 -11926-2 0  9994
2 61602  87.8883  16.2283 0002302  89.7068 270.4323 13.11415424 87659
ONEWEB-0697             
1 61603U 24188K   26192.86855390  .00000235  00000+0  62728-3 0  9990
2 61603  87.8882  16.1513 0002498  99.3782 260.7629 13.11418883 87686
ONEWEB-0698             
1 61604U 24188L   26192.99909730 -.00000506  00000+0 -14638-2 0  9992
2 61604  87.8878  16.1390 0002323 119.6504 240.4855 13.11416609 87725
ONEWEB-0699             
1 61605U 24188M   26192.95507425 -.00000277  00000+0 -83035-3 0  9997
2 61605  87.8806  31.3289 0002387 101.2733 258.8662 13.10370234 86555
ONEWEB-0700             
1 61606U 24188N   26192.95675285 -.00000523  00000+0 -15342-2 0  9997
2 61606  87.8837  31.2434 0002397  97.9920 262.1479 13.10369312 86549
ONEWEB-0701             
1 61607U 24188P   26192.97373955 -.00000457  00000+0 -13464-2 0  9998
2 61607  87.8821  31.3267 0002476 101.5189 258.6217 13.10375285 86552
ONEWEB-0702             
1 61608U 24188Q   26192.51081182  .00000396  00000+0  10821-2 0  9991
2 61608  87.8880  16.1461 0002788  97.3520 262.7925 13.11414790 87674
ONEWEB-0704             
1 61609U 24188R   26192.58006017 -.00000630  00000+0 -18414-2 0  9992
2 61609  87.8823  31.3952 0002840  92.8335 267.3117 13.10371448 86482
ONEWEB-0705             
1 61610U 24188S   26192.96694911 -.00000642  00000+0 -18744-2 0  9991
2 61610  87.8824  31.3240 0002746  76.2818 283.8615 13.10373130 78704
ONEWEB-0706             
1 61611U 24188T   26193.02803766 -.00000287  00000+0 -85938-3 0  9995
2 61611  87.8826  31.3168 0002464  88.1334 272.0075 13.10369791 86637
ONEWEB-0707             
1 61612U 24188U   26192.57665867 -.00000571  00000+0 -16716-2 0  9996
2 61612  87.8822  31.4007 0002412  88.7938 271.3466 13.10370009 86513
ONEWEB-0708             
1 61613U 24188V   26192.97712233 -.00000286  00000+0 -85552-3 0  9999
2 61613  87.8821  31.3372 0002096  72.1815 287.9541 13.10374160 86548
